[{"CCSDS_OMM_VERS":"2.0","COMMENT":"GENERATED VIA SPACE-TRACK.ORG API","CREATION_DATE":"2019-11-16T14:20:16","ORIGINATOR":"18 SPCS","OBJECT_NAME":"GALILEO-FM3","OBJECT_ID":"2012-055A","CENTER_NAME":"EARTH","REF_FRAME":"TEME","TIME_SYSTEM":"UTC","MEAN_ELEMENT_THEORY":"SGP4","EPOCH":"2019-11-15T21:23:31.466688","MEAN_MOTION":"1.70473815","ECCENTRICITY":"0.00011240","INCLINATION":"54.9464","RA_OF_ASC_NODE":"167.6899","ARG_OF_PERICENTER":"255.2394","MEAN_ANOMALY":"104.8372","EPHEMERIS_TYPE":"0","CLASSIFICATION_TYPE":"U","NORAD_CAT_ID":"38857","ELEMENT_SET_NO":"999","REV_AT_EPOCH":"4415","BSTAR":"0.00000000000000","MEAN_MOTION_DOT":"0.00000086","MEAN_MOTION_DDOT":"0.0000000000000","SEMIMAJOR_AXIS":"29600.341","PERIOD":"844.704","APOAPSIS":"23225.533","PERIAPSIS":"23218.879","OBJECT_TYPE":"PAYLOAD","RCS_SIZE":"LARGE","COUNTRY_CODE":"ESA","LAUNCH_DATE":"2012-10-12","SITE":"FRGUI","DECAY_DATE":null,"FILE":"2652434","GP_ID":"143107387","TLE_LINE0":"0 GALILEO-FM3","TLE_LINE1":"1 38857U 12055A   19319.89133642  .00000086  00000-0  00000+0 0  9996","TLE_LINE2":"2 38857  54.9464 167.6899 0001124 255.2394 104.8372  1.70473815 44154"},{"CCSDS_OMM_VERS":"2.0","COMMENT":"GENERATED VIA SPACE-TRACK.ORG API","CREATION_DATE":"2019-11-18T22:30:16","ORIGINATOR":"18 SPCS","OBJECT_NAME":"GALILEO-FM3","OBJECT_ID":"2012-055A","CENTER_NAME":"EARTH","REF_FRAME":"TEME","TIME_SYSTEM":"UTC","MEAN_ELEMENT_THEORY":"SGP4","EPOCH":"2019-11-18T05:42:13.155264","MEAN_MOTION":"1.70473765","ECCENTRICITY":"0.00010810","INCLINATION":"54.9469","RA_OF_ASC_NODE":"167.6253","ARG_OF_PERICENTER":"253.3537","MEAN_ANOMALY":"106.7120","EPHEMERIS_TYPE":"0","CLASSIFICATION_TYPE":"U","NORAD_CAT_ID":"38857","ELEMENT_SET_NO":"999","REV_AT_EPOCH":"4419","BSTAR":"0.00000000000000","MEAN_MOTION_DOT":"0.00000080","MEAN_MOTION_DDOT":"0.0000000000000","SEMIMAJOR_AXIS":"29600.347","PERIOD":"844.704","APOAPSIS":"23225.412","PERIAPSIS":"23219.012","OBJECT_TYPE":"PAYLOAD","RCS_SIZE":"LARGE","COUNTRY_CODE":"ESA","LAUNCH_DATE":"2012-10-12","SITE":"FRGUI","DECAY_DATE":null,"FILE":"2653393","GP_ID":"143263588","TLE_LINE0":"0 GALILEO-FM3","TLE_LINE1":"1 38857U 12055A   19322.23765226  .00000080  00000-0  00000+0 0  9991","TLE_LINE2":"2 38857  54.9469 167.6253 0001081 253.3537 106.7120  1.70473765 44193"},{"CCSDS_OMM_VERS":"2.0","COMMENT":"GENERATED VIA SPACE-TRACK.ORG API","CREATION_DATE":"2019-11-20T04:17:24","ORIGINATOR":"18 SPCS","OBJECT_NAME":"GALILEO-FM3","OBJECT_ID":"2012-055A","CENTER_NAME":"EARTH","REF_FRAME":"TEME","TIME_SYSTEM":"UTC","MEAN_ELEMENT_THEORY":"SGP4","EPOCH":"2019-11-19T09:51:34.648416","MEAN_MOTION":"1.70473749","ECCENTRICITY":"0.00010690","INCLINATION":"54.9471","RA_OF_ASC_NODE":"167.5929","ARG_OF_PERICENTER":"253.0937","MEAN_ANOMALY":"106.9709","EPHEMERIS_TYPE":"0","CLASSIFICATION_TYPE":"U","NORAD_CAT_ID":"38857","ELEMENT_SET_NO":"999","REV_AT_EPOCH":"4421","BSTAR":"0.00000000000000","MEAN_MOTION_DOT":"0.00000080","MEAN_MOTION_DDOT":"0.0000000000000","SEMIMAJOR_AXIS":"29600.349","PERIOD":"844.704","APOAPSIS":"23225.378","PERIAPSIS":"23219.049","OBJECT_TYPE":"PAYLOAD","RCS_SIZE":"LARGE","COUNTRY_CODE":"ESA","LAUNCH_DATE":"2012-10-12","SITE":"FRGUI","DECAY_DATE":null,"FILE":"2653696","GP_ID":"143303965","TLE_LINE0":"0 GALILEO-FM3","TLE_LINE1":"1 38857U 12055A   19323.41081769 +.00000080 +00000-0 +00000-0 0  9996","TLE_LINE2":"2 38857 054.9471 167.5929 0001069 253.0937 106.9709 01.70473749044212"},{"CCSDS_OMM_VERS":"2.0","COMMENT":"GENERATED VIA SPACE-TRACK.ORG API","CREATION_DATE":"2019-11-22T06:05:54","ORIGINATOR":"18 SPCS","OBJECT_NAME":"GALILEO-FM3","OBJECT_ID":"2012-055A","CENTER_NAME":"EARTH","REF_FRAME":"TEME","TIME_SYSTEM":"UTC","MEAN_ELEMENT_THEORY":"SGP4","EPOCH":"2019-11-21T18:10:18.604992","MEAN_MOTION":"1.70473734","ECCENTRICITY":"0.00010510","INCLINATION":"54.9476","RA_OF_ASC_NODE":"167.5282","ARG_OF_PERICENTER":"251.3177","MEAN_ANOMALY":"108.7519","EPHEMERIS_TYPE":"0","CLASSIFICATION_TYPE":"U","NORAD_CAT_ID":"38857","ELEMENT_SET_NO":"999","REV_AT_EPOCH":"4425","BSTAR":"0.00000000000000","MEAN_MOTION_DOT":"0.00000087","MEAN_MOTION_DDOT":"0.0000000000000","SEMIMAJOR_AXIS":"29600.350","PERIOD":"844.704","APOAPSIS":"23225.326","PERIAPSIS":"23219.104","OBJECT_TYPE":"PAYLOAD","RCS_SIZE":"LARGE","COUNTRY_CODE":"ESA","LAUNCH_DATE":"2012-10-12","SITE":"FRGUI","DECAY_DATE":null,"FILE":"2654872","GP_ID":"143426943","TLE_LINE0":"0 GALILEO-FM3","TLE_LINE1":"1 38857U 12055A   19325.75715978 +.00000087 +00000-0 +00000-0 0  9998","TLE_LINE2":"2 38857 054.9476 167.5282 0001051 251.3177 108.7519 01.70473734044254"},{"CCSDS_OMM_VERS":"2.0","COMMENT":"GENERATED VIA SPACE-TRACK.ORG API","CREATION_DATE":"2019-11-22T06:20:15","ORIGINATOR":"18 SPCS","OBJECT_NAME":"GALILEO-FM3","OBJECT_ID":"2012-055A","CENTER_NAME":"EARTH","REF_FRAME":"TEME","TIME_SYSTEM":"UTC","MEAN_ELEMENT_THEORY":"SGP4","EPOCH":"2019-11-21T18:10:18.604992","MEAN_MOTION":"1.70473734","ECCENTRICITY":"0.00010510","INCLINATION":"54.9476","RA_OF_ASC_NODE":"167.5282","ARG_OF_PERICENTER":"251.3177","MEAN_ANOMALY":"108.7519","EPHEMERIS_TYPE":"0","CLASSIFICATION_TYPE":"U","NORAD_CAT_ID":"38857","ELEMENT_SET_NO":"999","REV_AT_EPOCH":"4425","BSTAR":"0.00000000000000","MEAN_MOTION_DOT":"0.00000087","MEAN_MOTION_DDOT":"0.0000000000000","SEMIMAJOR_AXIS":"29600.350","PERIOD":"844.704","APOAPSIS":"23225.326","PERIAPSIS":"23219.104","OBJECT_TYPE":"PAYLOAD","RCS_SIZE":"LARGE","COUNTRY_CODE":"ESA","LAUNCH_DATE":"2012-10-12","SITE":"FRGUI","DECAY_DATE":null,"FILE":"2654899","GP_ID":"143432323","TLE_LINE0":"0 GALILEO-FM3","TLE_LINE1":"1 38857U 12055A   19325.75715978  .00000087  00000-0  00000+0 0  9997","TLE_LINE2":"2 38857  54.9476 167.5282 0001051 251.3177 108.7519  1.70473734 44254"},{"CCSDS_OMM_VERS":"2.0","COMMENT":"GENERATED VIA SPACE-TRACK.ORG API","CREATION_DATE":"2019-11-25T06:10:39","ORIGINATOR":"18 SPCS","OBJECT_NAME":"GALILEO-FM3","OBJECT_ID":"2012-055A","CENTER_NAME":"EARTH","REF_FRAME":"TEME","TIME_SYSTEM":"UTC","MEAN_ELEMENT_THEORY":"SGP4","EPOCH":"2019-11-23T12:24:21.391200","MEAN_MOTION":"1.70473742","ECCENTRICITY":"0.00010360","INCLINATION":"54.9480","RA_OF_ASC_NODE":"167.4797","ARG_OF_PERICENTER":"250.1941","MEAN_ANOMALY":"109.8778","EPHEMERIS_TYPE":"0","CLASSIFICATION_TYPE":"U","NORAD_CAT_ID":"38857","ELEMENT_SET_NO":"999","REV_AT_EPOCH":"4428","BSTAR":"0.00000000000000","MEAN_MOTION_DOT":"0.00000089","MEAN_MOTION_DDOT":"0.0000000000000","SEMIMAJOR_AXIS":"29600.349","PERIOD":"844.704","APOAPSIS":"23225.281","PERIAPSIS":"23219.148","OBJECT_TYPE":"PAYLOAD","RCS_SIZE":"LARGE","COUNTRY_CODE":"ESA","LAUNCH_DATE":"2012-10-12","SITE":"FRGUI","DECAY_DATE":null,"FILE":"2656502","GP_ID":"143597537","TLE_LINE0":"0 GALILEO-FM3","TLE_LINE1":"1 38857U 12055A   19327.51691425 +.00000089 +00000-0 +00000-0 0  9996","TLE_LINE2":"2 38857 054.9480 167.4797 0001036 250.1941 109.8778 01.70473742044289"},{"CCSDS_OMM_VERS":"2.0","COMMENT":"GENERATED VIA SPACE-TRACK.ORG API","CREATION_DATE":"2019-11-25T14:30:17","ORIGINATOR":"18 SPCS","OBJECT_NAME":"GALILEO-FM3","OBJECT_ID":"2012-055A","CENTER_NAME":"EARTH","REF_FRAME":"TEME","TIME_SYSTEM":"UTC","MEAN_ELEMENT_THEORY":"SGP4","EPOCH":"2019-11-24T16:33:42.678720","MEAN_MOTION":"1.70473763","ECCENTRICITY":"0.00010230","INCLINATION":"54.9482","RA_OF_ASC_NODE":"167.4474","ARG_OF_PERICENTER":"249.2201","MEAN_ANOMALY":"110.8494","EPHEMERIS_TYPE":"0","CLASSIFICATION_TYPE":"U","NORAD_CAT_ID":"38857","ELEMENT_SET_NO":"999","REV_AT_EPOCH":"4430","BSTAR":"0.00000000000000","MEAN_MOTION_DOT":"0.00000085","MEAN_MOTION_DDOT":"0.0000000000000","SEMIMAJOR_AXIS":"29600.347","PERIOD":"844.704","APOAPSIS":"23225.240","PERIAPSIS":"23219.184","OBJECT_TYPE":"PAYLOAD","RCS_SIZE":"LARGE","COUNTRY_CODE":"ESA","LAUNCH_DATE":"2012-10-12","SITE":"FRGUI","DECAY_DATE":null,"FILE":"2656611","GP_ID":"143604112","TLE_LINE0":"0 GALILEO-FM3","TLE_LINE1":"1 38857U 12055A   19328.69007730  .00000085  00000-0  00000+0 0  9991","TLE_LINE2":"2 38857  54.9482 167.4474 0001023 249.2201 110.8494  1.70473763 44300"},{"CCSDS_OMM_VERS":"2.0","COMMENT":"GENERATED VIA SPACE-TRACK.ORG API","CREATION_DATE":"2019-11-27T03:39:53","ORIGINATOR":"18 SPCS","OBJECT_NAME":"GALILEO-FM3","OBJECT_ID":"2012-055A","CENTER_NAME":"EARTH","REF_FRAME":"TEME","TIME_SYSTEM":"UTC","MEAN_ELEMENT_THEORY":"SGP4","EPOCH":"2019-11-25T20:43:03.472032","MEAN_MOTION":"1.70473788","ECCENTRICITY":"0.00010120","INCLINATION":"54.9484","RA_OF_ASC_NODE":"167.4150","ARG_OF_PERICENTER":"248.2579","MEAN_ANOMALY":"111.8057","EPHEMERIS_TYPE":"0","CLASSIFICATION_TYPE":"U","NORAD_CAT_ID":"38857","ELEMENT_SET_NO":"999","REV_AT_EPOCH":"4432","BSTAR":"0.00000000000000","MEAN_MOTION_DOT":"0.00000077","MEAN_MOTION_DDOT":"0.0000000000000","SEMIMAJOR_AXIS":"29600.344","PERIOD":"844.704","APOAPSIS":"23225.205","PERIAPSIS":"23219.214","OBJECT_TYPE":"PAYLOAD","RCS_SIZE":"LARGE","COUNTRY_CODE":"ESA","LAUNCH_DATE":"2012-10-12","SITE":"FRGUI","DECAY_DATE":null,"FILE":"2657605","GP_ID":"143698157","TLE_LINE0":"0 GALILEO-FM3","TLE_LINE1":"1 38857U 12055A   19329.86323463 +.00000077 +00000-0 +00000-0 0  9997","TLE_LINE2":"2 38857 054.9484 167.4150 0001012 248.2579 111.8057 01.70473788044323"}]